#cP2023  5 22  0  0  0.00000000      96 ORBIT IGS20 HLM  IGS
## 2263  86400.00000000   900.00000000 60086 0.0000000000000
+   32   G01G02G03G04G05G06G07G08G09G10G11G12G13G14G15G16G17
+        G18G19G20G21G22G23G24G25G26G27G28G29G30G31G32  0  0
+          0  0  0  0  0  0  0  0  0  0  0  0  0  0  0  0  0
+          0  0  0  0  0  0  0  0  0  0  0  0  0  0  0  0  0
+          0  0  0  0  0  0  0  0  0  0  0  0  0  0  0  0  0
++         2  2  2  2  2  2  2  2  2  2  2  2  2  3  2  2  2
++         2  2  2  2  3  2  2  3  3  2  2  2  2  2  2  0  0
++         0  0  0  0  0  0  0  0  0  0  0  0  0  0  0  0  0
++         0  0  0  0  0  0  0  0  0  0  0  0  0  0  0  0  0
++         0  0  0  0  0  0  0  0  0  0  0  0  0  0  0  0  0
%c G  cc GPS ccc cccc cccc cccc cccc ccccc ccccc ccccc ccccc
%c cc cc ccc ccc cccc cccc cccc cccc ccccc ccccc ccccc ccccc
%f  1.2500000  1.025000000  0.00000000000  0.000000000000000
%f  0.0000000  0.000000000  0.00000000000  0.000000000000000
%i    0    0    0    0      0      0      0      0         0
%i    0    0    0    0      0      0      0      0         0
/* RAPID ORBIT COMBINATION FROM WEIGHTED AVERAGE OF:        
/* cod emr esa gfz grg jpl sio usn whu                      
/* REFERENCED TO IGS TIME (IGST) AND TO WEIGHTED MEAN POLE: 
/* PCV:IGS20_2233 OL/AL:FES2014b NONE     Y  ORB:CMB CLK:CMB
*  2023  5 22 12 45  0.00000000
PG01  14095.069750 -22250.905833  -1489.676404    183.500551  5  6  3  67       
PG02  18208.891952  -6117.515217  18866.387162   -593.619404  7  2  5  80       
PG03  11692.903543 -12863.891443 -20176.262889   -295.652598  4  6  5  70       
PG04   3603.543121 -20214.052291 -16772.600241     48.004309  4  7  6  88       
PG05 -24666.423862   5359.210274   8280.910335   -128.166173  6  7  3  88       
PG06 -12175.248444  -7994.064399 -22150.575124    587.700497  4  6  6  92       
PG07   2325.534578 -22195.645116  14479.893844    171.972553  2  3  6  97       
PG08  12027.394716  -9597.720589  21546.505720   -123.664332  5  3  4  88       
PG09  -5733.282302 -24356.981913  -8912.513568   -153.236776  8  2  5  95       
PG10  19057.228405  11268.269938  15077.343275    -37.983062  6  4  5  93       
PG11 -19350.863722   6449.935308 -16984.327758   -206.199589 10  6  8  86       
PG12 -15212.967759  11198.921206 -18915.466244   -379.140070  8  5  5  91       
PG13 -15265.683589   1024.241172  21553.865292    523.489821  6  8  6 102       
PG14 -16071.806321 -13344.488760  16502.338783     65.370599  6  4  6 106       
PG15 -10712.123264  11699.637318  20821.766140     41.841618  4  9  4  93       
PG16  26204.039620    200.722013   5310.618320   -498.779004 10  5  5  69       
PG17 -13411.548029 -22087.674903  -5467.750882    715.714112  3  2  6  86       
PG18   -529.428260  20659.972895  16593.316004   -276.735504  6  2  5  93       
PG19 -16131.600599 -16361.612728 -13807.911848    320.292155  5  4  6  94       
PG20 -26350.177068   2096.209918  -1040.300813    432.196734  6  6  4  79       
PG21  16929.259126 -18018.468923   8973.492117    153.667361  7  3  5  73       
PG22  16804.521294  13407.737543 -15248.677766    485.527630  9  7  4  84       
PG23   6882.415081  14581.722022  21138.843414     26.308810  6  5  4 100       
PG24 -14638.169186  21538.443315   3545.896718   -197.871883  7  7  3  98       
PG25  -2173.788993  15406.516929 -21830.327607    444.591759  5  7  6  77       
PG26  25296.605261   5076.710192  -7132.917719    240.445675 12 10  8  50       
PG27  16967.495227   2905.490696  20087.029548     32.183398  2  4  3  85       
PG28  11684.056816   9936.002653 -21706.823091     79.587946  5  4  1  64       
PG29   1515.908092  23962.616393 -11314.296788   -600.321361  6  5  5  92       
PG30  -7084.182546 -15958.504537  20057.721717   -515.734779  5  4  4 101       
PG31  18008.765903  -1350.140209 -19796.437690   -216.621722  6  5  3  67       
PG32  16130.936031  19715.263589  -7691.251653   -482.580291  6  6  6  84       
*  2023  5 22 13  0  0.00000000
PG01  14244.016233 -22114.911171   1444.709373    183.498081  5  6  4  82       
PG02  17340.184836  -4170.500592  20226.785607   -593.616091  7  3  4  76       
PG03  13893.847022 -12703.888410 -18817.259341   -295.642049  4  5  5  85       
PG04   4641.134593 -18472.740643 -18450.929633     48.013165  4  7  6  78       
PG05 -25480.571067   5152.206441   5569.419742   -128.167616  6  7  3  72       
PG06 -10817.399828 -10129.770922 -21972.866589    587.699795  3  6  6 103       
PG07   3311.963679 -23326.243215  12224.453340    171.963974  5  3  6  99       
PG08  13295.683754  -7453.384069  21683.705942   -123.666965  5  2  4  74       
PG09  -4951.765024 -23471.214478 -11427.122800   -153.229183  8  3  5  80       
PG10  17260.664147  11339.757386  17052.781471    -37.985015  6  5  5  91       
PG11 -18312.554828   4688.759003 -18635.490196   -206.212341 10  5  8  72       
PG12 -17213.309368  10869.564127 -17292.425995   -379.144351  8  5  5  82       
PG13 -16089.704052  -1298.482197  20954.298781    523.494754  6  8  6 100       
PG14 -14085.334014 -13391.283507  18181.090485     65.382045  6  5  6  88       
PG15 -12229.133159   9708.506594  21028.241896     41.844832  4  9  4  84       
PG16  26653.170122    461.234048   2517.739847   -498.775959  9  5  4  74       
PG17 -13421.831606 -22647.567855  -2629.202240    715.715409  3  2  5  80       
PG18  -1629.678721  22075.890711  14561.639265   -276.749580  5  2  4  98       
PG19 -16520.246545 -17716.869034 -11462.244025    320.296855  5  4  6 100       
PG20 -26108.934147   1756.200360  -3864.614100    432.194541  6  6  3  79       
PG21  16665.314948 -16888.195587  11538.863322    153.666859  7  4  4  83       
PG22  17305.569692  15029.582125 -13101.468424    485.533001  8  7  3  96       
PG23   4435.952845  14625.028082  21741.898930     26.311702  6  5  3 101       
PG24 -14686.634048  20830.043856   6293.862598   -197.884242  7  7  3 102       
PG25  -4588.977985  15328.378495 -21480.181720    444.594206  5  7  6  90       
PG26  24365.277909   5391.433103  -9691.598917    240.445070 12  9  8  68       
PG27  17971.948306   4934.845896  18829.207734     32.176275  2  4  3  81       
PG28  10438.833190  12050.664642 -21265.929505     79.590428  4  4     86       
PG29    773.075587  22735.673258 -13691.799752   -600.322551  6  5  4 108       
PG30  -5780.851363 -17764.609078  18893.936444   -515.732774  5  4  3  93       
PG31  16835.811095    605.242022 -20808.745218   -216.622459  6  5  3  81       
PG32  16282.920965  20479.119868  -4973.631898   -482.588465  6  5  6  97       
*  2023  5 22 13 15  0.00000000
PG01  14239.367459 -21693.043966   4353.582022    183.495643  5  5  3  77       
PG02  16527.138506  -2062.199898  21254.611016   -593.612415  6  4  4  90       
PG03  15930.153117 -12659.574541 -17136.556501   -295.631451  4  5  4  90       
PG04   5853.320013 -16638.982811 -19810.255946     48.022078  4  7  7  93       
PG05 -25992.378370   4965.974487   2762.330291   -128.169436  7  8  3  89       
PG06  -9601.714096 -12302.563059 -21414.663100    587.699078  4  6  6  93       
PG07   4118.926328 -24272.311665   9758.259876    171.955810  6  2  6  95       
PG08  14667.556076  -5385.396747  21445.472709   -123.668447  4  3  3  88       
PG09  -3977.560020 -22397.843580 -13745.305554   -153.221526  7  3  6  96       
PG10  15264.769028  11518.722177  18742.001538    -37.986351  6  6  5  92       
PG11 -17281.403957   2730.814205 -19965.413489   -206.225074  9  4  8  87       
PG12 -19031.916005  10653.840218 -15376.817949   -379.148598  8  5  5  90       
PG13 -16999.021021  -3490.243820  19989.691371    523.499321  6  8  6 111       
PG14 -11930.988425 -13538.492033  19548.842163     65.393483  6  5  6  98       
PG15 -13836.037717   7790.036735  20857.440174     41.847850  3  9  4  91       
PG16  26799.935103    676.831104   -317.467343   -498.773078  8  5  5  76       
PG17 -13310.313338 -22916.704512    255.170753    715.717300  4  2  5  87       
PG18  -2532.817071  23335.306020  12277.552545   -276.763666  5  2  4 107       
PG19 -16863.288809 -18803.034906  -8924.529824    320.301814  5  4  6  97       
PG20 -25574.108179   1342.103098  -6621.593163    432.192685  6  6  3  79       
PG21  16345.958951 -15495.288703  13901.708715    153.666917  7  4  4  86       
PG22  17773.383752  16388.773435 -10724.658855    485.538949  8  7  1  76       
PG23   1946.921203  14804.120758  21971.514270     26.314591  6  5  3  98       
PG24 -14647.816123  19840.216497   8929.635440   -197.896602  7  7  3  85       
PG25  -6949.027405  15372.524533 -20769.623211    444.596631  5  7  6  84       
PG26  23174.808600   5778.065924 -12087.367388    240.444462 10  9  8  39       
PG27  18995.499655   6766.515951  17244.896575     32.169147  3  5  3  87       
PG28   9336.949970  14164.254347 -20459.878954     79.592987  4  5     63       
PG29   -153.186571  21324.089697 -15833.441367   -600.323788  4  4  4  83       
PG30  -4635.834852 -19502.318924  17405.405622   -515.730820  4  4  3  99       
PG31  15718.526745   2703.545456 -21471.449744   -216.622775  6  5  4  77       
PG32  16309.033530  20969.317818  -2171.075352   -482.596654  5  5  6  96       
EOF
